{"type": "FeatureCollection", "features": [ {"type": "Feature", "properties": {"norad_id": 31538, "name": "FENGYUN 1C DEB", "group": "fengyun-1c-debris", "lat": 64.65535933733638, "lon": -165.70206370583284, "alt_km": 575.0831904482384, "timestamp": "2025-12-09T14:52:26.444825+00:00", "meta": {"OBJECT_NAME": "FENGYUN 1C DEB", "OBJECT_ID": "1999-025BYD", "EPOCH": "2025-11-18T21:37:36.814656", "MEAN_MOTION": 14.96885168, "ECCENTRICITY": 0.00235351, "INCLINATION": 98.2479, "RA_OF_ASC_NODE": 190.2519, "ARG_OF_PERICENTER": 356.6213, "MEAN_ANOMALY": 3.4844, "EPHEMERIS_TYPE": 0, "CLASSIFICATION_TYPE": "U", "NORAD_CAT_ID": 31538, "ELEMENT_SET_NO": 999, "REV_AT_EPOCH": 66646, "BSTAR": 0.0047226763, "MEAN_MOTION_DOT": 0.00054817, "MEAN_MOTION_DDOT": 0}, "tle": {"line1": "1 31538U 99025BYD 25322.90112054  .00054817  00000+0  47227-2 0  9999", "line2": "2 31538  98.2479 190.2519 0023535 356.6213   3.4844 14.96885168666469"}}, "geometry": {"type": "Point", "coordinates": [-165.70206370583284, 64.65535933733638]}}, {"type": "Feature", "properties": {"norad_id": 31540, "name": "FENGYUN 1C DEB", "group": "fengyun-1c-debris", "lat": -43.66300718516621, "lon": -46.02630912650497, "alt_km": 672.6663532915236, "timestamp": "2025-12-09T14:52:26.444835+00:00", "meta": {"OBJECT_NAME": "FENGYUN 1C DEB", "OBJECT_ID": "1999-025BYF", "EPOCH": "2025-12-09T05:38:36.930624", "MEAN_MOTION": 14.65331731, "ECCENTRICITY": 0.01770154, "INCLINATION": 99.0575, "RA_OF_ASC_NODE": 142.307, "ARG_OF_PERICENTER": 311.8781, "MEAN_ANOMALY": 46.743, "EPHEMERIS_TYPE": 0, "CLASSIFICATION_TYPE": "U", "NORAD_CAT_ID": 31540, "ELEMENT_SET_NO": 999, "REV_AT_EPOCH": 98250, "BSTAR": 0.0011275977, "MEAN_MOTION_DOT": 7.611e-05, "MEAN_MOTION_DDOT": 0}, "tle": {"line1": "1 31540U 99025BYF 25343.23514966  .00007611  00000+0  11276-2 0  9994", "line2": "2 31540  99.0575 142.3070 0177015 311.8781  46.7430 14.65331731982509"}}, "geometry": {"type": "Point", "coordinates": [-46.02630912650497, -43.66300718516621]}}, {"type": "Feature", "properties": {"norad_id": 31541, "name": "FENGYUN 1C DEB", "group": "fengyun-1c-debris", "lat": 67.79514438410185, "lon": -31.49157407436337, "alt_km": 700.2981090898102, "timestamp": "2025-12-09T14:52:26.444846+00:00", "meta": {"OBJECT_NAME": "FENGYUN 1C DEB", "OBJECT_ID": "1999-025BYG", "EPOCH": "2025-12-08T20:22:53.743296", "MEAN_MOTION": 14.68723026, "ECCENTRICITY": 0.0078443, "INCLINATION": 98.9795, "RA_OF_ASC_NODE": 124.8716, "ARG_OF_PERICENTER": 252.2346, "MEAN_ANOMALY": 107.0285, "EPHEMERIS_TYPE": 0, "CLASSIFICATION_TYPE": "U", "NORAD_CAT_ID": 31541, "ELEMENT_SET_NO": 999, "REV_AT_EPOCH": 98366, "BSTAR": 0.0016888, "MEAN_MOTION_DOT": 0.0001026, "MEAN_MOTION_DDOT": 0}, "tle": {"line1": "1 31541U 99025BYG 25342.84923314  .00010260  00000+0  16888-2 0  9990", "line2": "2 31541  98.9795 124.8716 0078443 252.2346 107.0285 14.68723026983666"}}, "geometry": {"type": "Point", "coordinates": [-31.49157407436337, 67.79514438410185]}}, {"type": "Feature", "properties": {"norad_id": 31542, "name": "FENGYUN 1C DEB", "group": "fengyun-1c-debris", "lat": 38.9283331291574, "lon": -135.21665333083382, "alt_km": 804.2496424591245, "timestamp": "2025-12-09T14:52:26.444856+00:00", "meta": {"OBJECT_NAME": "FENGYUN 1C DEB", "OBJECT_ID": "1999-025BYH", "EPOCH": "2025-12-08T14:34:57.942048", "MEAN_MOTION": 14.22760731, "ECCENTRICITY": 0.00472884, "INCLINATION": 98.7313, "RA_OF_ASC_NODE": 36.6499, "ARG_OF_PERICENTER": 218.708, "MEAN_ANOMALY": 141.0706, "EPHEMERIS_TYPE": 0, "CLASSIFICATION_TYPE": "U", "NORAD_CAT_ID": 31542, "ELEMENT_SET_NO": 999, "REV_AT_EPOCH": 95881, "BSTAR": 0.0020971405, "MEAN_MOTION_DOT": 4.714e-05, "MEAN_MOTION_DDOT": 0}, "tle": {"line1": "1 31542U 99025BYH 25342.60761507  .00004714  00000+0  20971-2 0  9994", "line2": "2 31542  98.7313  36.6499 0047288 218.7080 141.0706 14.22760731958813"}}, "geometry": {"type": "Point", "coordinates": [-135.21665333083382, 38.9283331291574]}}, {"type": "Feature", "properties": {"norad_id": 31544, "name": "FENGYUN 1C DEB", "group": "fengyun-1c-debris", "lat": -33.16714474277084, "lon": 40.750742530865, "alt_km": 835.4811293050616, "timestamp": "2025-12-09T14:52:26.444867+00:00", "meta": {"OBJECT_NAME": "FENGYUN 1C DEB", "OBJECT_ID": "1999-025BYK", "EPOCH": "2025-12-07T01:54:30.978144", "MEAN_MOTION": 14.14312139, "ECCENTRICITY": 0.00315576, "INCLINATION": 98.8298, "RA_OF_ASC_NODE": 32.4097, "ARG_OF_PERICENTER": 285.4522, "MEAN_ANOMALY": 74.3167, "EPHEMERIS_TYPE": 0, "CLASSIFICATION_TYPE": "U", "NORAD_CAT_ID": 31544, "ELEMENT_SET_NO": 999, "REV_AT_EPOCH": 95677, "BSTAR": 0.0011847546, "MEAN_MOTION_DOT": 2.231e-05, "MEAN_MOTION_DDOT": 0}, "tle": {"line1": "1 31544U 99025BYK 25341.07952521  .00002231  00000+0  11848-2 0  9999", "line2": "2 31544  98.8298  32.4097 0031557 285.4522  74.3167 14.14312139956778"}}, "geometry": {"type": "Point", "coordinates": [40.750742530865, -33.16714474277084]}}, {"type": "Feature", "properties": {"norad_id": 31546, "name": "FENGYUN 1C DEB", "group": "fengyun-1c-debris", "lat": 34.66062020369355, "lon": -120.87118768079432, "alt_km": 740.4383846421533, "timestamp": "2025-12-09T14:52:26.444877+00:00", "meta": {"OBJECT_NAME": "FENGYUN 1C DEB", "OBJECT_ID": "1999-025BYM", "EPOCH": "2025-12-07T11:12:47.947104", "MEAN_MOTION": 14.13072271, "ECCENTRICITY": 0.01467291, "INCLINATION": 98.2446, "RA_OF_ASC_NODE": 51.3914, "ARG_OF_PERICENTER": 151.9137, "MEAN_ANOMALY": 209.0053, "EPHEMERIS_TYPE": 0, "CLASSIFICATION_TYPE": "U", "NORAD_CAT_ID": 31546, "ELEMENT_SET_NO": 999, "REV_AT_EPOCH": 94714, "BSTAR": 0.0031675997, "MEAN_MOTION_DOT": 6.519e-05, "MEAN_MOTION_DDOT": 0}, "tle": {"line1": "1 31546U 99025BYM 25341.46722161  .00006519  00000+0  31676-2 0  9993", "line2": "2 31546  98.2446  51.3914 0146729 151.9137 209.0053 14.13072271947145"}}, "geometry": {"type": "Point", "coordinates": [-120.87118768079432, 34.66062020369355]}}, {"type": "Feature", "properties": {"norad_id": 31547, "name": "FENGYUN 1C DEB", "group": "fengyun-1c-debris", "lat": 17.513394845854947, "lon": -149.81777021018317, "alt_km": 821.5408370260184, "timestamp": "2025-12-09T14:52:26.444888+00:00", "meta": {"OBJECT_NAME": "FENGYUN 1C DEB", "OBJECT_ID": "1999-025BYN", "EPOCH": "2025-12-06T01:44:17.670336", "MEAN_MOTION": 14.2307234, "ECCENTRICITY": 0.00534444, "INCLINATION": 99.0859, "RA_OF_ASC_NODE": 23.6288, "ARG_OF_PERICENTER": 272.0478, "MEAN_ANOMALY": 87.458, "EPHEMERIS_TYPE": 0, "CLASSIFICATION_TYPE": "U", "NORAD_CAT_ID": 31547, "ELEMENT_SET_NO": 999, "REV_AT_EPOCH": 63922, "BSTAR": 0.0023723325, "MEAN_MOTION_DOT": 5.385e-05, "MEAN_MOTION_DDOT": 0}, "tle": {"line1": "1 31547U 99025BYN 25340.07242674  .00005385  00000+0  23723-2 0  9990", "line2": "2 31547  99.0859  23.6288 0053444 272.0478  87.4580 14.23072340639221"}}, "geometry": {"type": "Point", "coordinates": [-149.81777021018317, 17.513394845854947]}}, {"type": "Feature", "properties": {"norad_id": 31550, "name": "FENGYUN 1C DEB", "group": "fengyun-1c-debris", "lat": 32.96399997493917, "lon": 168.60741962051952, "alt_km": 851.8530310043825, "timestamp": "2025-12-09T14:52:26.445126+00:00", "meta": {"OBJECT_NAME": "FENGYUN 1C DEB", "OBJECT_ID": "1999-025BYR", "EPOCH": "2025-12-08T18:10:11.266176", "MEAN_MOTION": 14.40173204, "ECCENTRICITY": 0.01902168, "INCLINATION": 98.3115, "RA_OF_ASC_NODE": 342.3294, "ARG_OF_PERICENTER": 284.9063, "MEAN_ANOMALY": 73.1133, "EPHEMERIS_TYPE": 0, "CLASSIFICATION_TYPE": "U", "NORAD_CAT_ID": 31550, "ELEMENT_SET_NO": 999, "REV_AT_EPOCH": 65397, "BSTAR": 0.0013773158, "MEAN_MOTION_DOT": 5.342e-05, "MEAN_MOTION_DDOT": 0}, "tle": {"line1": "1 31550U 99025BYR 25342.75707484  .00005342  00000+0  13773-2 0  9993", "line2": "2 31550  98.3115 342.3294 0190216 284.9063  73.1133 14.40173204653975"}}, "geometry": {"type": "Point", "coordinates": [168.60741962051952, 32.96399997493917]}}, {"type": "Feature", "properties": {"norad_id": 31552, "name": "FENGYUN 1C DEB", "group": "fengyun-1c-debris", "lat": 58.079475225948144, "lon": 91.3282769839848, "alt_km": 680.8121189934473, "timestamp": "2025-12-09T14:52:26.445139+00:00", "meta": {"OBJECT_NAME": "FENGYUN 1C DEB", "OBJECT_ID": "1999-025BYT", "EPOCH": "2025-12-08T07:02:34.816992", "MEAN_MOTION": 14.4554573, "ECCENTRICITY": 0.00857548, "INCLINATION": 98.6225, "RA_OF_ASC_NODE": 104.079, "ARG_OF_PERICENTER": 34.5602, "MEAN_ANOMALY": 326.1122, "EPHEMERIS_TYPE": 0, "CLASSIFICATION_TYPE": "U", "NORAD_CAT_ID": 31552, "ELEMENT_SET_NO": 999, "REV_AT_EPOCH": 95812, "BSTAR": 0.0034430126, "MEAN_MOTION_DOT": 0.00012687, "MEAN_MOTION_DDOT": 0}, "tle": {"line1": "1 31552U 99025BYT 25342.29345853  .00012687  00000+0  34430-2 0  9995", "line2": "2 31552  98.6225 104.0790 0085754  34.5602 326.1122 14.45545730958120"}}, "geometry": {"type": "Point", "coordinates": [91.3282769839848, 58.079475225948144]}}, {"type": "Feature", "properties": {"norad_id": 31553, "name": "FENGYUN 1C DEB", "group": "fengyun-1c-debris", "lat": 37.93765263690133, "lon": -134.63649767454186, "alt_km": 769.5366178022332, "timestamp": "2025-12-09T14:52:26.445150+00:00", "meta": {"OBJECT_NAME": "FENGYUN 1C DEB", "OBJECT_ID": "1999-025BYU", "EPOCH": "2025-12-09T02:33:47.592576", "MEAN_MOTION": 14.30107061, "ECCENTRICITY": 0.00306299, "INCLINATION": 99.0024, "RA_OF_ASC_NODE": 37.7345, "ARG_OF_PERICENTER": 112.6008, "MEAN_ANOMALY": 269.2597, "EPHEMERIS_TYPE": 0, "CLASSIFICATION_TYPE": "U", "NORAD_CAT_ID": 31553, "ELEMENT_SET_NO": 999, "REV_AT_EPOCH": 95858, "BSTAR": 0.0019990997, "MEAN_MOTION_DOT": 5.151e-05, "MEAN_MOTION_DDOT": 0}, "tle": {"line1": "1 31553U 99025BYU 25343.10680084  .00005151  00000+0  19991-2 0  9998", "line2": "2 31553  99.0024  37.7345 0030629 112.6008 269.2597 14.30107061958588"}}, "geometry": {"type": "Point", "coordinates": [-134.63649767454186, 37.93765263690133]}}]}